{"type": "FeatureCollection", "features": [{"type": "Feature", "properties": {"county": "Nairobi", "code": "NRB"}, "geometry": {"type": "Polygon", "coordinates": [[[36.7, -1.4], [36.9, -1.4], [36.9, -1.2], [36.7, -1.2], [36.7, -1.4]]]}}, {"type": "Feature", "properties": {"county": "Mombasa", "code": "MBA"}, "geometry": {"type": "Polygon", "coordinates": [[[39.6, -4.1], [39.7, -4.1], [39.7, -3.9], [39.6, -3.9], [39.6, -4.1]]]}}, {"type": "Feature", "properties": {"county": "Kisumu", "code": "KSM"}, "geometry": {"type": "Polygon", "coordinates": [[[34.7, -0.2], [34.8, -0.2], [34.8, -0.1], [34.7, -0.1], [34.7, -0.2]]]}}, {"type": "Feature", "properties": {"county": "Uasin Gishu", "code": "UGI"}, "geometry": {"type": "Polygon", "coordinates": [[[35.2, 0.4], [35.4, 0.4], [35.4, 0.6], [35.2, 0.6], [35.2, 0.4]]]}}, {"type": "Feature", "properties": {"county": "Nakuru", "code": "NKR"}, "geometry": {"type": "Polygon", "coordinates": [[[36.0, -0.4], [36.2, -0.4], [36.2, -0.2], [36.0, -0.2], [36.0, -0.4]]]}}, {"type": "Feature", "properties": {"county": "Kitui", "code": "KIT"}, "geometry": {"type": "Polygon", "coordinates": [[[38.0, -1.5], [38.2, -1.5], [38.2, -1.3], [38.0, -1.3], [38.0, -1.5]]]}}, {"type": "Feature", "properties": {"county": "Garissa", "code": "GAR"}, "geometry": {"type": "Polygon", "coordinates": [[[39.5, -0.6], [39.7, -0.6], [39.7, -0.4], [39.5, -0.4], [39.5, -0.6]]]}}, {"type": "Feature", "properties": {"county": "Turkana", "code": "TRK"}, "geometry": {"type": "Polygon", "coordinates": [[[36.7, 2.8], [36.9, 2.8], [36.9, 3.0], [36.7, 3.0], [36.7, 2.8]]]}}, {"type": "Feature", "properties": {"county": "Mandera", "code": "MAN"}, "geometry": {"type": "Polygon", "coordinates": [[[40.9, 3.8], [41.1, 3.8], [41.1, 4.0], [40.9, 4.0], [40.9, 3.8]]]}}, {"type": "Feature", "properties": {"county": "Marsabit", "code": "MAR"}, "geometry": {"type": "Polygon", "coordinates": [[[37.9, 2.2], [38.1, 2.2], [38.1, 2.4], [37.9, 2.4], [37.9, 2.2]]]}}, {"type": "Feature", "properties": {"county": "Embu", "code": "EMB"}, "geometry": {"type": "Polygon", "coordinates": [[[37.4, -0.6], [37.6, -0.6], [37.6, -0.4], [37.4, -0.4], [37.4, -0.6]]]}}, {"type": "Feature", "properties": {"county": "Meru", "code": "MER"}, "geometry": {"type": "Polygon", "coordinates": [[[37.6, 0.0], [37.8, 0.0], [37.8, 0.2], [37.6, 0.2], [37.6, 0.0]]]}}, {"type": "Feature", "properties": {"county": "Kajiado", "code": "KAJ"}, "geometry": {"type": "Polygon", "coordinates": [[[36.7, -2.1], [36.9, -2.1], [36.9, -1.9], [36.7, -1.9], [36.7, -2.1]]]}}, {"type": "Feature", "properties": {"county": "Machakos", "code": "MCK"}, "geometry": {"type": "Polygon", "coordinates": [[[37.2, -1.6], [37.4, -1.6], [37.4, -1.4], [37.2, -1.4], [37.2, -1.6]]]}}, {"type": "Feature", "properties": {"county": "Kiambu", "code": "KMB"}, "geometry": {"type": "Polygon", "coordinates": [[[36.8, -1.2], [37.0, -1.2], [37.0, -1.0], [36.8, -1.0], [36.8, -1.2]]]}}]}